1 43013U 17073A   26169.90446635  .00000026  00000+0  33289-4 0  9996
2 43013  98.7770 109.3518 0000324 111.0718 249.0493 14.19511964444718
